APRIZESAT 2             
1 28366U 04025A   26186.23643342  .00000326  00000+0  11418-3 0  9994
2 28366  98.1032 351.1965 0105242 194.9183 164.8894 14.38044552154230
SAUDICOMSAT 1           
1 28369U 04025D   26185.75265677  .00000573  00000+0  14231-3 0  9994
2 28369  98.5771 196.3581 0031500 331.7707  28.1781 14.55488986166689
SAUDICOMSAT 2           
1 28370U 04025E   26186.48083822  .00000308  00000+0  90587-4 0  9992
2 28370  98.6639 199.2443 0054940 203.2167 156.6543 14.49991327162758
APRIZESAT 1             
1 28372U 04025G   26186.00744432  .00000392  00000+0  10829-3 0  9996
2 28372  98.6304 197.2179 0045768 100.8493 259.7857 14.51788235164496
NANOSAT-1               
1 28493U 04049B   26186.35357930  .00001416  00000+0  19362-3 0  9996
2 28493  98.2299 323.4611 0003069 219.8780 140.2206 14.80198594158132
SAUDICOMSAT 7           
1 31119U 07012C   26185.92556874  .00000770  00000+0  14637-3 0  9990
2 31119  98.3788 160.4211 0056510 139.8474 220.6925 14.66129441 25032
SAUDICOMSAT 6           
1 31121U 07012E   26186.15133059  .00000641  00000+0  13212-3 0  9990
2 31121  98.4108 154.0032 0070364 270.9625  88.3514 14.62578831 22813
SAUDICOMSAT 5           
1 31124U 07012H   26185.87418760  .00001008  00000+0  18123-3 0  9990
2 31124  98.3500 161.1120 0048661  70.5238 290.1214 14.68182931 26190
SAUDICOMSAT 3           
1 31125U 07012J   26185.87204562  .00001168  00000+0  19819-3 0  9994
2 31125  98.3154 161.6569 0039049 358.1881   1.9177 14.70738595 27426
SAUDICOMSAT 4           
1 31127U 07012L   26186.39676755  .00000623  00000+0  12400-3 0  9995
2 31127  98.3994 159.3396 0062869 200.4173 159.4514 14.64530004 23957
APRIZESAT 4             
1 35684U 09041D   26186.19375298  .00001000  00000+0  12563-3 0  9997
2 35684  98.1407 261.8729 0041908 262.9445  96.7001 14.83905100914037
APRIZESAT 3             
1 35686U 09041F   26185.88735680  .00001641  00000+0  14569-3 0  9998
2 35686  98.2081 339.9614 0061679   9.7074 350.5322 14.96289816919024
S-NET D                 
1 43186U 18014G   26186.27433500  .00008525  00000+0  43626-3 0  9996
2 43186  97.5341  90.9522 0006931 327.1488  32.9313 15.16855433461500
S-NET B                 
1 43187U 18014H   26186.28614187  .00008646  00000+0  44270-3 0  9990
2 43187  97.5346  90.9510 0007435 320.4689  39.6001 15.16824843461501
S-NET A                 
1 43188U 18014J   26186.27311248  .00008521  00000+0  43588-3 0  9995
2 43188  97.5357  91.1504 0007335 321.9490  38.1224 15.16864051461501
S-NET C                 
1 43189U 18014K   26186.29011141  .00008639  00000+0  44240-3 0  9993
2 43189  97.5374  91.2446 0008577 311.6281  48.4216 15.16816485460052
SALSAT                  
1 46495U 20068K   26186.45874269  .00010448  00000+0  36136-3 0  9990
2 46495  97.8857 190.6390 0008285 230.3359 129.7150 15.30074171318152
OOV-CUBE (TUBSAT-30)    
1 60240U 24128F   26186.41984973  .00003114  00000+0  24244-3 0  9994
2 60240  61.9939 161.9927 0042330 137.7916 222.6447 15.02846916108853
LPNTSAT-001 (IOD-1)     
1 68408U 26065A   26186.19730647  .00004007  00000+0  19627-3 0  9993
2 68408  97.3992  66.3248 0014936 305.2872  54.6965 15.18635404 14991
